{"type": "FeatureCollection", "features": [ {"type": "Feature", "properties": {"norad_id": 37550, "name": "IRIDIUM 33 DEB", "group": "iridium-33-debris", "lat": -20.45254705617927, "lon": 22.15538618310927, "alt_km": 677.6433452499941, "timestamp": "2025-12-13T13:34:35.426427+00:00", "meta": {"OBJECT_NAME": "IRIDIUM 33 DEB", "OBJECT_ID": "1997-051XK", "EPOCH": "2025-12-11T20:44:57.108768", "MEAN_MOTION": 14.67192319, "ECCENTRICITY": 0.0005511, "INCLINATION": 86.3777, "RA_OF_ASC_NODE": 24.2628, "ARG_OF_PERICENTER": 113.4096, "MEAN_ANOMALY": 246.7698, "EPHEMERIS_TYPE": 0, "CLASSIFICATION_TYPE": "U", "NORAD_CAT_ID": 37550, "ELEMENT_SET_NO": 999, "REV_AT_EPOCH": 86320, "BSTAR": 0.0020084, "MEAN_MOTION_DOT": 0.00011332, "MEAN_MOTION_DDOT": 0}, "tle": {"line1": "1 37550U 97051XK  25345.86454987  .00011332  00000+0  20084-2 0  9997", "line2": "2 37550  86.3777  24.2628 0005511 113.4096 246.7698 14.67192319863204"}}, "geometry": {"type": "Point", "coordinates": [22.15538618310927, -20.45254705617927]}}, {"type": "Feature", "properties": {"norad_id": 37562, "name": "IRIDIUM 33 DEB", "group": "iridium-33-debris", "lat": 23.161352199095138, "lon": -138.3142181659481, "alt_km": 692.406274458157, "timestamp": "2025-12-13T13:34:35.426436+00:00", "meta": {"OBJECT_NAME": "IRIDIUM 33 DEB", "OBJECT_ID": "1997-051XX", "EPOCH": "2025-12-12T22:34:29.180064", "MEAN_MOTION": 14.56479735, "ECCENTRICITY": 0.00267072, "INCLINATION": 86.3742, "RA_OF_ASC_NODE": 43.5127, "ARG_OF_PERICENTER": 107.2211, "MEAN_ANOMALY": 13.868, "EPHEMERIS_TYPE": 0, "CLASSIFICATION_TYPE": "U", "NORAD_CAT_ID": 37562, "ELEMENT_SET_NO": 999, "REV_AT_EPOCH": 86331, "BSTAR": 0.0015437368, "MEAN_MOTION_DOT": 6.916e-05, "MEAN_MOTION_DDOT": 0}, "tle": {"line1": "1 37562U 97051XX  25346.94061551  .00006916  00000+0  15437-2 0  9999", "line2": "2 37562  86.3742  43.5127 0026707 107.2211  13.8680 14.56479735863311"}}, "geometry": {"type": "Point", "coordinates": [-138.3142181659481, 23.161352199095138]}}, {"type": "Feature", "properties": {"norad_id": 37565, "name": "IRIDIUM 33 DEB", "group": "iridium-33-debris", "lat": -77.14798965678236, "lon": -7.030339714266343, "alt_km": 738.1754173855779, "timestamp": "2025-12-13T13:34:35.426445+00:00", "meta": {"OBJECT_NAME": "IRIDIUM 33 DEB", "OBJECT_ID": "1997-051YA", "EPOCH": "2025-12-12T08:09:12.075840", "MEAN_MOTION": 14.51514759, "ECCENTRICITY": 0.00152083, "INCLINATION": 86.3497, "RA_OF_ASC_NODE": 9.7522, "ARG_OF_PERICENTER": 85.3197, "MEAN_ANOMALY": 274.9745, "EPHEMERIS_TYPE": 0, "CLASSIFICATION_TYPE": "U", "NORAD_CAT_ID": 37565, "ELEMENT_SET_NO": 999, "REV_AT_EPOCH": 65831, "BSTAR": 0.00084222029, "MEAN_MOTION_DOT": 3.391e-05, "MEAN_MOTION_DDOT": 0}, "tle": {"line1": "1 37565U 97051YA  25346.33972310  .00003391  00000+0  84222-3 0  9992", "line2": "2 37565  86.3497   9.7522 0015208  85.3197 274.9745 14.51514759658312"}}, "geometry": {"type": "Point", "coordinates": [-7.030339714266343, -77.14798965678236]}}, {"type": "Feature", "properties": {"norad_id": 38017, "name": "IRIDIUM 33 DEB", "group": "iridium-33-debris", "lat": 1.8931418280177374, "lon": 165.9880889049565, "alt_km": 740.482947655496, "timestamp": "2025-12-13T13:34:35.426454+00:00", "meta": {"OBJECT_NAME": "IRIDIUM 33 DEB", "OBJECT_ID": "1997-051YD", "EPOCH": "2025-12-09T11:46:33.949344", "MEAN_MOTION": 14.48798991, "ECCENTRICITY": 0.0092342, "INCLINATION": 86.3421, "RA_OF_ASC_NODE": 167.6378, "ARG_OF_PERICENTER": 113.8595, "MEAN_ANOMALY": 247.2321, "EPHEMERIS_TYPE": 0, "CLASSIFICATION_TYPE": "U", "NORAD_CAT_ID": 38017, "ELEMENT_SET_NO": 999, "REV_AT_EPOCH": 61355, "BSTAR": 0.0067532519, "MEAN_MOTION_DOT": 0.00027013, "MEAN_MOTION_DDOT": 0}, "tle": {"line1": "1 38017U 97051YD  25343.49067071  .00027013  00000+0  67533-2 0  9990", "line2": "2 38017  86.3421 167.6378 0092342 113.8595 247.2321 14.48798991613556"}}, "geometry": {"type": "Point", "coordinates": [165.9880889049565, 1.8931418280177374]}}, {"type": "Feature", "properties": {"norad_id": 38022, "name": "IRIDIUM 33 DEB", "group": "iridium-33-debris", "lat": 57.15712321432944, "lon": -169.72017691222848, "alt_km": 740.1310585925994, "timestamp": "2025-12-13T13:34:35.426463+00:00", "meta": {"OBJECT_NAME": "IRIDIUM 33 DEB", "OBJECT_ID": "1997-051YJ", "EPOCH": "2025-12-12T08:41:14.041248", "MEAN_MOTION": 14.41246239, "ECCENTRICITY": 0.00465932, "INCLINATION": 86.2691, "RA_OF_ASC_NODE": 16.6083, "ARG_OF_PERICENTER": 51.6762, "MEAN_ANOMALY": 308.8611, "EPHEMERIS_TYPE": 0, "CLASSIFICATION_TYPE": "U", "NORAD_CAT_ID": 38022, "ELEMENT_SET_NO": 999, "REV_AT_EPOCH": 69188, "BSTAR": 0.001535131, "MEAN_MOTION_DOT": 5.042e-05, "MEAN_MOTION_DDOT": 0}, "tle": {"line1": "1 38022U 97051YJ  25346.36196807  .00005042  00000+0  15351-2 0  9994", "line2": "2 38022  86.2691  16.6083 0046593  51.6762 308.8611 14.41246239691882"}}, "geometry": {"type": "Point", "coordinates": [-169.72017691222848, 57.15712321432944]}}, {"type": "Feature", "properties": {"norad_id": 38028, "name": "IRIDIUM 33 DEB", "group": "iridium-33-debris", "lat": -78.92762378641319, "lon": -19.259511916453874, "alt_km": 766.088963409964, "timestamp": "2025-12-13T13:34:35.426472+00:00", "meta": {"OBJECT_NAME": "IRIDIUM 33 DEB", "OBJECT_ID": "1997-051YQ", "EPOCH": "2025-12-09T08:38:54.868992", "MEAN_MOTION": 14.46171938, "ECCENTRICITY": 0.00301795, "INCLINATION": 86.3256, "RA_OF_ASC_NODE": 1.7381, "ARG_OF_PERICENTER": 131.6061, "MEAN_ANOMALY": 228.7734, "EPHEMERIS_TYPE": 0, "CLASSIFICATION_TYPE": "U", "NORAD_CAT_ID": 38028, "ELEMENT_SET_NO": 999, "REV_AT_EPOCH": 65446, "BSTAR": 0.0004464513, "MEAN_MOTION_DOT": 1.624e-05, "MEAN_MOTION_DDOT": 0}, "tle": {"line1": "1 38028U 97051YQ  25343.36035728  .00001624  00000+0  44645-3 0  9992", "line2": "2 38028  86.3256   1.7381 0030179 131.6061 228.7734 14.46171938654463"}}, "geometry": {"type": "Point", "coordinates": [-19.259511916453874, -78.92762378641319]}}, {"type": "Feature", "properties": {"norad_id": 38228, "name": "IRIDIUM 33 DEB", "group": "iridium-33-debris", "lat": 21.98989521700652, "lon": -133.38099567920932, "alt_km": 760.2170400856457, "timestamp": "2025-12-13T13:34:35.426481+00:00", "meta": {"OBJECT_NAME": "IRIDIUM 33 DEB", "OBJECT_ID": "1997-051ZC", "EPOCH": "2025-12-12T22:17:01.277664", "MEAN_MOTION": 14.2726748, "ECCENTRICITY": 0.00642641, "INCLINATION": 86.2947, "RA_OF_ASC_NODE": 48.3893, "ARG_OF_PERICENTER": 188.8079, "MEAN_ANOMALY": 297.4121, "EPHEMERIS_TYPE": 0, "CLASSIFICATION_TYPE": "U", "NORAD_CAT_ID": 38228, "ELEMENT_SET_NO": 999, "REV_AT_EPOCH": 84784, "BSTAR": 0.00045109336, "MEAN_MOTION_DOT": 1.146e-05, "MEAN_MOTION_DDOT": 0}, "tle": {"line1": "1 38228U 97051ZC  25346.92848701  .00001146  00000+0  45109-3 0  9997", "line2": "2 38228  86.2947  48.3893 0064264 188.8079 297.4121 14.27267480847847"}}, "geometry": {"type": "Point", "coordinates": [-133.38099567920932, 21.98989521700652]}}, {"type": "Feature", "properties": {"norad_id": 38241, "name": "IRIDIUM 33 DEB", "group": "iridium-33-debris", "lat": 18.00616731522807, "lon": 169.0383453357456, "alt_km": 710.4099888056408, "timestamp": "2025-12-13T13:34:35.426490+00:00", "meta": {"OBJECT_NAME": "IRIDIUM 33 DEB", "OBJECT_ID": "1997-051ZR", "EPOCH": "2025-12-11T08:00:47.481696", "MEAN_MOTION": 14.54853492, "ECCENTRICITY": 0.00056662, "INCLINATION": 86.3236, "RA_OF_ASC_NODE": 351.2198, "ARG_OF_PERICENTER": 76.7484, "MEAN_ANOMALY": 283.4354, "EPHEMERIS_TYPE": 0, "CLASSIFICATION_TYPE": "U", "NORAD_CAT_ID": 38241, "ELEMENT_SET_NO": 999, "REV_AT_EPOCH": 60180, "BSTAR": 0.0013259899, "MEAN_MOTION_DOT": 5.712e-05, "MEAN_MOTION_DDOT": 0}, "tle": {"line1": "1 38241U 97051ZR  25345.33388289  .00005712  00000+0  13260-2 0  9991", "line2": "2 38241  86.3236 351.2198 0005666  76.7484 283.4354 14.54853492601805"}}, "geometry": {"type": "Point", "coordinates": [169.0383453357456, 18.00616731522807]}}, {"type": "Feature", "properties": {"norad_id": 38474, "name": "IRIDIUM 33 DEB", "group": "iridium-33-debris", "lat": -76.96743244867841, "lon": -6.313985205994898, "alt_km": 750.0486467188357, "timestamp": "2025-12-13T13:34:35.426499+00:00", "meta": {"OBJECT_NAME": "IRIDIUM 33 DEB", "OBJECT_ID": "1997-051AAB", "EPOCH": "2025-12-12T08:08:10.657536", "MEAN_MOTION": 14.50688816, "ECCENTRICITY": 0.00284142, "INCLINATION": 86.3472, "RA_OF_ASC_NODE": 10.2406, "ARG_OF_PERICENTER": 89.2215, "MEAN_ANOMALY": 271.2246, "EPHEMERIS_TYPE": 0, "CLASSIFICATION_TYPE": "U", "NORAD_CAT_ID": 38474, "ELEMENT_SET_NO": 999, "REV_AT_EPOCH": 65312, "BSTAR": 0.00088014019, "MEAN_MOTION_DOT": 3.495e-05, "MEAN_MOTION_DDOT": 0}, "tle": {"line1": "1 38474U 97051AAB 25346.33901224  .00003495  00000+0  88014-3 0  9996", "line2": "2 38474  86.3472  10.2406 0028414  89.2215 271.2246 14.50688816653125"}}, "geometry": {"type": "Point", "coordinates": [-6.313985205994898, -76.96743244867841]}}, {"type": "Feature", "properties": {"norad_id": 39777, "name": "IRIDIUM 33 DEB", "group": "iridium-33-debris", "lat": -13.654459514964802, "lon": 173.65905507649427, "alt_km": 749.7136861941426, "timestamp": "2025-12-13T13:34:35.426508+00:00", "meta": {"OBJECT_NAME": "IRIDIUM 33 DEB", "OBJECT_ID": "1997-051AAJ", "EPOCH": "2025-12-12T06:18:37.183104", "MEAN_MOTION": 14.5641282, "ECCENTRICITY": 0.00598335, "INCLINATION": 85.9631, "RA_OF_ASC_NODE": 175.2743, "ARG_OF_PERICENTER": 188.1374, "MEAN_ANOMALY": 171.887, "EPHEMERIS_TYPE": 0, "CLASSIFICATION_TYPE": "U", "NORAD_CAT_ID": 39777, "ELEMENT_SET_NO": 999, "REV_AT_EPOCH": 60178, "BSTAR": 0.0041697031, "MEAN_MOTION_DOT": 0.00019016, "MEAN_MOTION_DDOT": 0}, "tle": {"line1": "1 39777U 97051AAJ 25346.26293036  .00019016  00000+0  41697-2 0  9991", "line2": "2 39777  85.9631 175.2743 0059833 188.1374 171.8870 14.56412820601783"}}, "geometry": {"type": "Point", "coordinates": [173.65905507649427, -13.654459514964802]}}]}